{"type":"FeatureCollection","features":[{"type":"Feature","id":83,"geometry":{"type":"LineString","coordinates":[[8.3101707090109,47.05116780651407],[8.310215605687201,47.05123272565438],[8.310266236364093,47.051297154116575],[8.310322590180016,47.05136107807135],[8.310384654528637,47.051424483212195],[8.310452416057684,47.051487355786236],[8.310525858022928,47.05154968015471],[8.310604962673459,47.051611441247886],[8.310689710081732,47.05167262350194],[8.310780088836024,47.051733217899915],[8.31087606571081,47.05179320143597],[8.31097761460486,47.051852557792316],[8.311084706755944,47.05191127015255],[8.311197312856681,47.051969322369885],[8.31131539771999,47.05202669622912],[8.311438925313363,47.052083374218654],[8.311567856425564,47.05213933834311],[8.311702295069836,47.052194628865585],[8.311842061821338,47.052249167302634],[8.31198710891054,47.05230293501002],[8.312137384852425,47.05235591289896],[8.312292837883392,47.05240808265611],[8.312453407564087,47.05245942393565],[8.312619032879116,47.05250991722467],[8.312789648620125,47.0525595426399],[8.312965211933015,47.052608287218106],[8.313145626269252,47.05265612366831],[8.313330815933659,47.05270303191687],[8.313520700653147,47.052748991627524],[8.313715200084589,47.05279398330177],[8.313914223137171,47.052837985817504],[8.314117678451874,47.05288097897299],[8.314325469889292,47.052922942449754],[8.314539271273079,47.05296419054307],[8.314757273072221,47.05300435082408],[8.31520543256089,47.05308132685982],[8.315669021778854,47.05315371133689],[8.316147038202194,47.0532213476478],[8.316638473754345,47.05328409221211],[8.317142167959796,47.05334179593907],[8.317656959308604,47.053394325732626],[8.318181633257506,47.053441557619045],[8.318715079256926,47.05348338925764],[8.319255883360855,47.05351970743108],[8.31980274345291,47.053550424702514],[8.320354345419634,47.053575467256],[8.320909346691083,47.05359477451096],[8.321466459008755,47.053608302012044],[8.322024379273241,47.053616018160334],[8.322581836680772,47.05361790541475],[8.323117013206222,47.053614210018154],[8.32364952575716,47.053605113570775],[8.324178324420245,47.05359063406067],[8.324702413338596,47.05357079880659],[8.325220769554935,47.05354564750231],[8.325732546674423,47.05351522220259],[8.326236873440736,47.05347957476565],[8.32673294233491,47.05343876233162],[8.327219482788388,47.053392898541745],[8.327696304355262,47.05334201062401],[8.328162734520568,47.05328617041423],[8.32861816103515,47.053225451275466],[8.329061958467097,47.05315993766001],[8.329493652295936,47.05308970071415],[8.329912750064846,47.053014820621165],[8.33031880961201,47.05293537644667],[8.330708877570425,47.052852016142324],[8.330898818746435,47.05280870112546],[8.331085307155403,47.05276430918373],[8.33126829994129,47.05271885054853],[8.331447760266451,47.052672334401656],[8.331623650827321,47.052624770413935],[8.331795936506362,47.05257616808352],[8.33196457014257,47.05252654096304],[8.332129533888354,47.05247589455873],[8.332290797192298,47.052424238252016],[8.332448331368429,47.05237158123337],[8.33260210767349,47.05231793313874],[8.332752101544678,47.05226330256639],[8.332898288225758,47.05220769853461],[8.333040644538992,47.05215112986106],[8.333179077872149,47.0520936352723],[8.33331364192211,47.05203519444473],[8.333444316903623,47.05197581597263],[8.333571084355626,47.051915508246346],[8.333693925923994,47.051854280025005],[8.333812826005511,47.05179213911409],[8.333927768993686,47.05172909367161],[8.334038740384958,47.05166515165439],[8.334145721257862,47.051600324200976],[8.334248704391051,47.05153461593226],[8.334347677701066,47.05146803455967],[8.334442630016667,47.051400587600035],[8.334533550370342,47.05133228287226],[8.334620429513553,47.05126312735409],[8.334703258316113,47.05119312831479],[8.334782028398752,47.05112229283757],[8.33475124384938,47.05087050063104],[8.334724351578824,47.05061888402543],[8.334701352233322,47.05036744906548],[8.334682246376724,47.05011620191308],[8.334667034473895,47.04986514863511],[8.334655716920572,47.049614295704586],[8.33464829400478,47.049363649500755],[8.334644765919316,47.049113216526784],[8.334645132769452,47.04886300196378],[8.334649394575658,47.04861301386862],[8.334657551223376,47.0483632589751],[8.334669602488619,47.04811374414836],[8.334685548049158,47.04786447614459],[8.33470538744735,47.04761546218119],[8.334729120117052,47.047366709367324],[8.334756745366915,47.04711822495187],[8.334788264100725,47.0468700035212],[8.334823674056139,47.046622065272445],[8.334862974161178,47.04637441771348],[8.3349061632011,47.0461270685006],[8.334953239865836,47.0458800251637],[8.33500420262546,47.04563329575608],[8.335059049842583,47.04538688820644],[8.335117779717663,47.04514081060066],[8.335180390773896,47.044895069308005],[8.335246880483458,47.044649674420285],[8.335317246577777,47.04440463431139],[8.335391486604784,47.04415995752134],[8.335469598023316,47.04391565244315],[8.335551577965411,47.04367172806395],[8.335637423459769,47.04342819322562],[8.335727131327864,47.04318505694622],[8.335820750548777,47.04294219541207],[8.33591822944449,47.0426997512511],[8.33601956425525,47.04245773381533],[8.336124750987873,47.04221615264247],[8.33623378556891,47.041975017102615],[8.33634666346551,47.04173433723454],[8.336463380047977,47.04149412291061],[8.336583930424288,47.041254384199874],[8.336708310700683,47.04101512896254],[8.336836514367983,47.04077636983278],[8.336968535832106,47.04053811722937],[8.337104369206775,47.04030038177581],[8.337244008537674,47.040063173906375],[8.33738744724947,47.0398265048033],[8.337534678682182,47.03959038545607],[8.337685695847634,47.039354827072536],[8.337840505403165,47.03911982012908],[8.337999086546287,47.03888539704444],[8.33816143143715,47.03865156940857],[8.338327531873095,47.03841834903662],[8.338497379603588,47.03818574752522],[8.338670965560759,47.03795377730438],[8.33884828060937,47.037722450582606],[8.33902931520984,47.03749177980602],[8.339214061845325,47.03726177465342],[8.339402508039138,47.037032450757096],[8.339594643230908,47.036803820968885],[8.339790456414441,47.03657589838616],[8.339989936564011,47.036348695854244],[8.340193071605253,47.03612222713704],[8.340399849418985,47.035896505746386],[8.340610257397534,47.035671545445766],[8.340825936041437,47.03544564575345],[8.34104527374883,47.035220547351685],[8.341268256373914,47.03499626475853],[8.341494869216119,47.03477281276094],[8.341725097584973,47.03455020585633],[8.341958925441174,47.03432845956466],[8.342196336727651,47.03410758911416],[8.342437314780284,47.03388761000854],[8.342681846479104,47.03366853432488],[8.342929910284182,47.033450381459815],[8.343181488065994,47.033233167357594],[8.343436561035702,47.0330169082413],[8.343695110456892,47.03280162000794],[8.343957115941395,47.03258731964587],[8.344222557124098,47.03237402381285],[8.344491412928349,47.03216174944575],[8.344763701193969,47.03195048326175],[8.345039361214521,47.03174027315492],[8.345318370212306,47.031531136495644],[8.345600704637263,47.031323090936894],[8.345886341042672,47.03111615376757],[8.346175254014025,47.03091034341145],[8.346467418203627,47.03070567792589],[8.346762807445051,47.030502175641594],[8.347061400816658,47.03029985107041],[8.347363165128865,47.03009872679851],[8.347668072306941,47.02989882153819],[8.347976093404988,47.0297001542679],[8.3482871996132,47.029502743580814],[8.348601359861416,47.02930660920357],[8.348918543196701,47.02911177046117],[8.349238717745816,47.028918246933316],[8.349562280400793,47.02872580492556],[8.349888776143162,47.028534721210114],[8.350218170870935,47.02834501574603],[8.350550429515923,47.02815670873051],[8.350885517203052,47.02796981994003],[8.351223396520886,47.02778437025126],[8.351564030229788,47.02760038010422],[8.351907380091314,47.02741787015376],[8.35225341456758,47.027236857256966],[8.352602086606135,47.02705736611957],[8.352953355733927,47.02687941757714],[8.353307180461611,47.026703032648214],[8.353663519520408,47.026528231916316],[8.354022328954073,47.02635503695451],[8.354383565015773,47.0261834688797],[8.354747182927778,47.02601354895953],[8.355113199098655,47.02584527022413],[8.355481506065907,47.02567868277364],[8.355852056776534,47.0255138078909],[8.356224803146876,47.0253506669712],[8.356599697335298,47.025189280963176],[8.356976688793381,47.02502967163681],[8.357355727216177,47.02487186029053],[8.357736761290033,47.02471586828918],[8.358119746608223,47.02456171389018],[8.35850462286174,47.02440942144564],[8.358891336588542,47.02425901211058],[8.359279833352135,47.02411050705818],[8.359670058966078,47.02396392700991],[8.36006195670646,47.023819293281335],[8.360455470102714,47.023676626714],[8.36085054177311,47.0235359481118],[8.36126876627421,47.02338977962587],[8.36168859020248,47.02324586868053],[8.36210994401582,47.023104239114566],[8.36253275714674,47.02296491464837],[8.362956959292553,47.02282791845672],[8.363382477518725,47.02269327410252],[8.363809239189015,47.02256100457026],[8.364237170766971,47.02243113265204],[8.364666204768048,47.02230367889174],[8.36509625985006,47.022178667516926],[8.365527260725756,47.02205612041299],[8.365959131363127,47.02193605919863],[8.366391795939805,47.021818504958574],[8.36682517678313,47.021703478802344],[8.367259196481665,47.02159100127639],[8.367693777054129,47.02148109259019],[8.36812887211207,47.02137376477371],[8.368564371095477,47.02126904539722],[8.369000195031523,47.0211669534505],[8.36943626457702,47.02106750752006],[8.369872500488,47.020970725680264],[8.37030882270702,47.020876625695045],[8.370745151350118,47.020785224792775],[8.37118140636446,47.02069653974284],[8.371617508560169,47.02061058665191],[8.372053376885999,47.02052738150316],[8.372488931208816,47.020446939593704],[8.372924091439243,47.02036927571511],[8.373358777508486,47.02029440415658],[8.37379290964606,47.02022233865733],[8.37422640815117,47.02015309244748],[8.374659193583947,47.02008667821653],[8.375091046929157,47.020023128251275],[8.375522029694105,47.01996243217563],[8.375952063349697,47.0199046010488],[8.376381069832474,47.01984964536859],[8.37680897099725,47.019797575141155],[8.37723569007864,47.01974839970374],[8.377661150280492,47.019702127906044],[8.378085275458611,47.01965876802902],[8.378507984903734,47.01961832827412],[8.378929208685268,47.01958081528165],[8.379348872324867,47.019546235683976],[8.379766902167185,47.01951459554983],[8.38018322440105,47.019485900458484],[8.380597767494235,47.019460155332894],[8.38101045979839,47.01943736462229],[8.381421230633766,47.019417532229454],[8.381829952722303,47.019400663695805],[8.382236614842313,47.01938675887798],[8.382641148647265,47.019375820112366],[8.383043486877614,47.01936784921714],[8.383443562093207,47.01936284751816],[8.383841309742321,47.01936081581228],[8.384236665105837,47.01936175442942],[8.384629564644307,47.01936566321812],[8.385019937229943,47.01937254137384],[8.385407729726762,47.01938238786292],[8.385792881314408,47.019395201140405],[8.386175332418908,47.01941097922364],[8.386555023287128,47.01942971963504],[8.386931897364684,47.01945141957073],[8.38730589791187,47.01947607576298],[8.387676969474047,47.01950368455512],[8.3880409415636,47.019533882457175],[8.388401945037101,47.019566958775414],[8.388759929071313,47.01960290885249],[8.389114844079806,47.01964172770798],[8.38946664033211,47.01968340988925],[8.389815271183595,47.019727949856076],[8.390160689832168,47.01977534162841],[8.390502850703106,47.01982557895253],[8.390841700949911,47.01987865394956],[8.391177205190719,47.019934560956685],[8.391509320605792,47.01999329283778],[8.391838005578775,47.02005484223251],[8.392163218396913,47.020119201315076],[8.392484920262849,47.02018636239283],[8.392803072250034,47.020256317338294],[8.393117636597621,47.02032905784773],[8.393428517351119,47.02040456069794],[8.393735738950992,47.020482830778136],[8.394039266253477,47.02056385913388],[8.394339065225171,47.02064763667889],[8.394635101784747,47.02073415387382],[8.394927344460335,47.0208234015053],[8.395215761698946,47.02091536993645],[8.395500322998135,47.021010049439965],[8.395780992292364,47.021107427881006],[8.396057747187417,47.02120749735296],[8.39633055953567,47.02131024767722],[8.396599402174067,47.0214156686223],[8.396864247945608,47.021523749523055],[8.397125071927585,47.02163448019232],[8.397381849166585,47.02174785003538],[8.397634555624437,47.021863848438166],[8.397882835900504,47.021982303183954],[8.398127010513157,47.02210335796805],[8.398367057576076,47.022227001938845],[8.398602956043582,47.022353224255106],[8.398834684927436,47.02248201366993],[8.399062225067745,47.02261335951766],[8.399285557323873,47.022747250748516],[8.39950466332658,47.02288367634884],[8.39971952124862,47.02302262258209],[8.399930118114218,47.0231640809082],[8.400136437312682,47.02330804016872],[8.400338462935059,47.02345448926213],[8.400536179170626,47.0236034167096],[8.400729571663389,47.023754811679744],[8.400918626118456,47.02390866298098],[8.401103328877884,47.02406495949742],[8.401283642587307,47.02422366837317],[8.401459579966408,47.02438479952722],[8.401631128837854,47.02454834180595],[8.401798277597242,47.02471428414544],[8.401961014769254,47.02488261513445],[8.402119329996495,47.02505332404026],[8.402273213017658,47.0252263997971],[8.40242265408614,47.02540183144163],[8.402567641729979,47.0255796053385],[8.402708169294007,47.025759713154315],[8.402844228250258,47.02594214395801],[8.40297581053024,47.02612688692992],[8.40310290821692,47.02631393093351],[8.403225514221862,47.02650326551534],[8.403343621578934,47.026694879916704],[8.403457223730198,47.02688876349679],[8.403701520142974,47.026624866780345],[8.403951018716112,47.026365882849866],[8.40420562067453,47.026111914235635],[8.404465225222742,47.0258630614824],[8.404729729584764,47.02561942310956],[8.404999029044806,47.02538109557219],[8.405273016988723,47.02514817322283],[8.405551584946226,47.02492074827412],[8.405834622633828,47.02469891076231],[8.406122017998495,47.024482748511645],[8.406413657262016,47.02427234709953],[8.406709424966047,47.02406778982272],[8.407009204017815,47.02386915766428],[8.407312875736473,47.023676529261564],[8.407620319900095,47.02348998087508],[8.407931414793264,47.02330958635828],[8.408246037255259,47.02313541712835],[8.408564062728813,47.02296754213791],[8.408885365309427,47.022806027847714],[8.409209817795213,47.02265093820038],[8.409537291737257,47.02250233459501],[8.409867657490462,47.022360275862944],[8.410200784264882,47.022224818244446],[8.410536540177496,47.02209601536641],[8.410874792304428,47.021973918221185],[8.411215406733556,47.02185857514634],[8.411558248617542,47.021750031805546],[8.411903182227212,47.02164833117051],[8.412250071005282,47.02155351350394],[8.412598777620437,47.02146561634362],[8.412949164021684,47.02138467448753],[8.413301091493016,47.021310719980114],[8.413654420708323,47.02124378209953],[8.414009011786552,47.02118388734612],[8.414364724347086,47.02113105943188],[8.414721417565323,47.02108531927108],[8.415078950228418,47.02104668497199],[8.415437180791198,47.021015171829724],[8.415795967432196,47.02099079232014],[8.416155168109794,47.02097355609497],[8.416514640618464,47.02096346997792],[8.416874242645054,47.02096053796204],[8.417233831825145,47.0209647612081],[8.417593265799399,47.02097613804413],[8.417952402269924,47.0209946639661],[8.418311099056606,47.02102033163972],[8.418669214153406,47.02105313090329],[8.419026605784563,47.02109304877177],[8.41938313246074,47.02114006944189],[8.41973865303503,47.02119417429845],[8.420093026758831,47.02125534192162],[8.420446113337576,47.0213235480955],[8.420797772986274,47.02139876581764],[8.421147866484842,47.02148096530977],[8.421496255233231,47.021570114029565],[8.421842801306294,47.02166617668355],[8.422187367508384,47.021769115241064],[8.422529817427677,47.02187888894931],[8.422870015490174,47.02199545434949],[8.423207827013371,47.02211876529402],[8.423543118259586,47.02224877296478],[8.423875756488895,47.02238542589248],[8.424205610011692,47.02252866997698],[8.424532548240819,47.02267844850875],[8.424856441743268,47.022834702191325],[8.42517716229142,47.022997369164734],[8.425494582913812,47.023166385030045],[8.4258085779454,47.02334168287482],[8.426119023077314,47.02352319329964],[8.426425795406074,47.023710844445525],[8.426728773482232,47.02390456202246],[8.427027837358475,47.02410426933873],[8.427322868637088,47.02430988733134],[8.42761375051685,47.02452133459728],[8.427900367839253,47.02473852742576],[8.428182607134115,47.02496137983136],[8.428460356664479,47.02518980358807],[8.428733506470866,47.0254237082642],[8.429001948414804,47.0256630012582],[8.429265576221635,47.025907587835334],[8.429524285522588,47.026157371165134],[8.429777973896107,47.02641225235978],[8.430026540908386,47.026672130513255],[8.430269888153143,47.02693690274125],[8.430507919290571,47.02720646422192],[8.430740540085477,47.02748070823739],[8.430967658444596,47.027759526216],[8.431189184453046,47.02804280777528],[8.431405030409923,47.02833044076564],[8.431615110863024,47.028622311314805],[8.431819342642681,47.028918303872864],[8.432017644894675,47.02921830125801],[8.43220993911226,47.02952218470299],[8.432396149167236,47.029829833902035],[8.432576201340087,47.030141127058556],[8.432750024349168,47.030455940933344],[8.432917549378928,47.03077415089335],[8.433078710107146,47.03109563096105],[8.433233442731197,47.031420253864276],[8.433429408474025,47.03093531138698],[8.433631921285157,47.03045306628335],[8.433840944048269,47.029973606938725],[8.434056438453908,47.029497021227876],[8.434278365006497,47.02902339649889],[8.434506683031591,47.028552819557184],[8.43474135068332,47.02808537664957],[8.434982324952054,47.02762115344845],[8.435229561672307,47.02716023503614],[8.435483015530808,47.02670270588925],[8.435742640074817,47.02624864986319],[8.436008387720642,47.02579815017686],[8.436280209762353,47.02535128939732],[8.436558056380711,47.024908149424725],[8.4368418766523,47.024468811477256],[8.43713161855886,47.024033356076295],[8.437427228996821,47.0236018630316],[8.437728653787033,47.023174411426744],[8.4380358376847,47.022751079604575],[8.4383487243895,47.02233194515287],[8.438667256555913,47.02191708489012],[8.438991375803722,47.02150657485145],[8.439321022728713,47.02110049027468],[8.439656136913568,47.02069890558653],[8.439996656938938,47.02030189438899],[8.440342520394694,47.01990952944583],[8.440693663891372,47.01952188266926],[8.441050023071785,47.01913902510673],[8.441411532622825,47.01876102692796],[8.441778126287426,47.018387957412024],[8.442149736876715,47.01801988493468],[8.44252629628232,47.01765687695585],[8.442907735488857,47.017299000007206],[8.443293984586576,47.01694631968006],[8.443684972784176,47.016598900613246],[8.444080628421784,47.01625680648135],[8.444480878984074,47.01592009998299],[8.444885651113575,47.015588842829374],[8.445294870624107,47.01526309573292],[8.445708462514377,47.014942918396194],[8.44612635098173,47.01462836950095],[8.446548459436036,47.01431950669734],[8.446974710513732,47.014016386593404],[8.447405026092001,47.01371906474465],[8.447839327303086,47.01342759564389],[8.44827753454875,47.01314203271125],[8.44871956751486,47.01286242828439],[8.449165345186115,47.0125888336089],[8.44961478586088,47.012321298828894],[8.450067807166176,47.012059872977844],[8.450524326072768,47.011804603969594],[8.450984258910381,47.011555538589555],[8.451447521383045,47.01131272248616],[8.451914028584532,47.01107620016246],[8.452383695013928,47.010846014968],[8.452856434591297,47.010622209090876],[8.453332160673463,47.01040482354997],[8.453810786069882,47.01019389818746],[8.454292223058628,47.009989471661505],[8.454776383402475,47.009791581439174],[8.455263178365058,47.009600263789565],[8.455752518727142,47.00941555377715],[8.456244314802976,47.0092374852554],[8.456738476456731,47.009066090860486],[8.457234913119011,47.00890140200539],[8.457733533803463,47.0087434488741],[8.45823424712345,47.008592260416094],[8.458736961308798,47.00844786434101],[8.459241584222614,47.00831028711361],[8.459748023378179,47.008179553948885],[8.460256185955895,47.008055688807474],[8.460765978820293,47.00793871439122],[8.461277308537113,47.00782865213909],[8.461790081390419,47.007725522223154],[8.462304203399775,47.00762934354494],[8.462819580337483,47.007540133731986],[8.463336117745833,47.00745790913455],[8.46385372095443,47.00738268482268],[8.464372295097542,47.00731447458339],[8.46489174513148,47.00725329091817],[8.46541197585203,47.007199145040715],[8.465932891911885,47.00715204687481],[8.46645439783814,47.00711200505255],[8.466976398049772,47.007079026912756],[8.46749879687517,47.00705311849963],[8.468021498569664,47.00703428456163],[8.468544407333075,47.00702252855062],[8.469067427327275,47.00701785262123],[8.469590462693745,47.00702025763047],[8.470113417571152,47.00702974313754],[8.470636196112913,47.00704630740394],[8.471158702504766,47.00706994739381],[8.471680840982327,47.00710065877443],[8.47220251584864,47.007138435917035],[8.472723631491725,47.0071832718979],[8.473244092402092,47.007235158499526],[8.47376380319025,47.0072940862122],[8.47428266860419,47.0073600442357],[8.474800593546842,47.007433020481336],[8.475317483093505,47.00751300157409],[8.475833242509246,47.00759997285512],[8.476347777266255,47.007693918384426],[8.476860993061184,47.00779482094378],[8.477372795832416,47.007902662039875],[8.477883091777317,47.00801742190771],[8.478391787369418,47.00813907951423],[8.478898789375563,47.00826761256217],[8.479404004872995,47.00840299749413],[8.479907341266387,47.008545209496916],[8.480408706304807,47.00869422250607],[8.480908008098638,47.00885000921066],[8.481405155136406,47.00901254105826],[8.481900056301562,47.009181788260236],[8.482392620889176,47.00935771979714]]},"properties":{"OBJECTID":83,"LINIENBEZ":"Luzern-Lido-Hertenstein SGV-Weggis-Vitznau","FP_URL":"http://www.lakelucerne.ch/fahrplan-preise/fahrplan/","TU":"SGV","TU_URL":"http://www.lakelucerne.ch/unternehmen/","TP_URL":"http://www.lakelucerne.ch/fahrplan-preise/preise-tickets/","SHAPE_Length":17821.779052485697}}]}