{"type":"FeatureCollection","features":[{"type":"Feature","id":83,"geometry":{"type":"LineString","coordinates":[[8.3101707090108992,47.051167806514073],[8.3102156056872012,47.05123272565438],[8.3102662363640931,47.051297154116575],[8.3103225901800162,47.051361078071352],[8.3103846545286366,47.051424483212195],[8.310452416057684,47.051487355786236],[8.3105258580229275,47.051549680154707],[8.3106049626734588,47.051611441247886],[8.3106897100817321,47.051672623501943],[8.3107800888360241,47.051733217899915],[8.3108760657108096,47.05179320143597],[8.3109776146048606,47.051852557792316],[8.3110847067559437,47.051911270152551],[8.311197312856681,47.051969322369885],[8.3113153977199907,47.05202669622912],[8.3114389253133627,47.052083374218654],[8.3115678564255635,47.05213933834311],[8.3117022950698356,47.052194628865585],[8.3118420618213378,47.052249167302634],[8.3119871089105395,47.052302935010019],[8.3121373848524254,47.05235591289896],[8.3122928378833922,47.052408082656108],[8.312453407564087,47.052459423935652],[8.3126190328791161,47.052509917224668],[8.3127896486201251,47.052559542639898],[8.3129652119330153,47.052608287218106],[8.313145626269252,47.052656123668307],[8.313330815933659,47.05270303191687],[8.3135207006531466,47.052748991627524],[8.3137152000845891,47.052793983301768],[8.3139142231371714,47.052837985817504],[8.3141176784518738,47.052880978972993],[8.3143254698892921,47.052922942449754],[8.3145392712730786,47.052964190543072],[8.314757273072221,47.053004350824082],[8.3152054325608908,47.053081326859818],[8.315669021778854,47.05315371133689],[8.3161470382021943,47.053221347647799],[8.3166384737543453,47.05328409221211],[8.3171421679597959,47.053341795939069],[8.3176569593086036,47.053394325732626],[8.318181633257506,47.053441557619045],[8.3187150792569255,47.053483389257643],[8.3192558833608548,47.053519707431079],[8.3198027434529092,47.053550424702514],[8.3203543454196343,47.053575467256003],[8.3209093466910833,47.053594774510962],[8.3214664590087555,47.053608302012044],[8.3220243792732411,47.053616018160334],[8.3225818366807722,47.053617905414747],[8.3231170132062218,47.053614210018154],[8.3236495257571601,47.053605113570775],[8.3241783244202452,47.053590634060669],[8.3247024133385956,47.053570798806589],[8.3252207695549352,47.053545647502311],[8.3257325466744234,47.053515222202591],[8.3262368734407364,47.053479574765653],[8.3267329423349103,47.053438762331623],[8.3272194827883883,47.053392898541745],[8.3276963043552623,47.053342010624007],[8.3281627345205678,47.053286170414232],[8.3286181610351502,47.053225451275466],[8.3290619584670971,47.053159937660013],[8.3294936522959357,47.053089700714153],[8.329912750064846,47.053014820621165],[8.3303188096120095,47.052935376446669],[8.3307088775704248,47.052852016142324],[8.3308988187464355,47.052808701125457],[8.3310853071554032,47.052764309183729],[8.3312682999412893,47.05271885054853],[8.3314477602664514,47.052672334401656],[8.3316236508273214,47.052624770413935],[8.3317959365063619,47.052576168083519],[8.3319645701425706,47.052526540963044],[8.3321295338883541,47.052475894558732],[8.3322907971922984,47.052424238252016],[8.332448331368429,47.052371581233373],[8.3326021076734893,47.052317933138738],[8.3327521015446777,47.052263302566388],[8.3328982882257581,47.052207698534609],[8.3330406445389915,47.052151129861059],[8.3331790778721491,47.0520936352723],[8.3333136419221105,47.052035194444727],[8.3334443169036234,47.051975815972632],[8.3335710843556257,47.051915508246346],[8.3336939259239937,47.051854280025005],[8.3338128260055111,47.051792139114092],[8.3339277689936857,47.051729093671611],[8.3340387403849583,47.05166515165439],[8.3341457212578618,47.051600324200976],[8.3342487043910509,47.051534615932262],[8.3343476777010661,47.051468034559669],[8.3344426300166674,47.051400587600035],[8.3345335503703417,47.051332282872259],[8.3346204295135529,47.05126312735409],[8.3347032583161127,47.051193128314793],[8.3347820283987524,47.051122292837569],[8.3347512438493805,47.050870500631042],[8.3347243515788243,47.050618884025432],[8.3347013522333224,47.050367449065483],[8.3346822463767243,47.050116201913077],[8.3346670344738953,47.049865148635106],[8.3346557169205724,47.049614295704586],[8.3346482940047792,47.049363649500755],[8.3346447659193164,47.049113216526784],[8.3346451327694524,47.048863001963781],[8.3346493945756581,47.048613013868618],[8.3346575512233763,47.048363258975101],[8.3346696024886189,47.04811374414836],[8.3346855480491584,47.047864476144589],[8.3347053874473502,47.047615462181192],[8.3347291201170517,47.047366709367324],[8.3347567453669154,47.047118224951873],[8.3347882641007249,47.0468700035212],[8.334823674056139,47.046622065272445],[8.3348629741611777,47.04637441771348],[8.3349061632011008,47.046127068500603],[8.3349532398658361,47.045880025163697],[8.3350042026254592,47.045633295756083],[8.3350590498425827,47.045386888206437],[8.3351177797176632,47.045140810600657],[8.3351803907738962,47.044895069308005],[8.3352468804834583,47.044649674420285],[8.3353172465777767,47.044404634311391],[8.3353914866047845,47.044159957521337],[8.335469598023316,47.043915652443147],[8.3355515779654112,47.043671728063948],[8.3356374234597688,47.043428193225623],[8.3357271313278645,47.043185056946221],[8.3358207505487769,47.042942195412067],[8.3359182294444896,47.042699751251099],[8.3360195642552508,47.042457733815333],[8.3361247509878726,47.042216152642467],[8.3362337855689095,47.041975017102615],[8.3363466634655108,47.041734337234537],[8.3364633800479773,47.041494122910613],[8.3365839304242879,47.041254384199874],[8.3367083107006827,47.041015128962542],[8.3368365143679828,47.040776369832777],[8.3369685358321064,47.040538117229367],[8.3371043692067754,47.040300381775808],[8.3372440085376738,47.040063173906375],[8.3373874472494691,47.039826504803301],[8.3375346786821822,47.039590385456073],[8.3376856958476342,47.039354827072536],[8.3378405054031646,47.039119820129081],[8.3379990865462865,47.038885397044439],[8.3381614314371504,47.038651569408572],[8.3383275318730945,47.038418349036618],[8.3384973796035879,47.038185747525219],[8.3386709655607589,47.037953777304381],[8.3388482806093691,47.037722450582606],[8.3390293152098405,47.037491779806018],[8.3392140618453254,47.037261774653423],[8.3394025080391376,47.037032450757096],[8.3395946432309085,47.036803820968885],[8.3397904564144412,47.036575898386161],[8.3399899365640113,47.036348695854244],[8.3401930716052526,47.036122227137042],[8.3403998494189846,47.035896505746386],[8.3406102573975343,47.035671545445766],[8.340825936041437,47.035445645753448],[8.3410452737488292,47.035220547351685],[8.3412682563739136,47.034996264758533],[8.3414948692161186,47.034772812760941],[8.3417250975849733,47.034550205856327],[8.3419589254411743,47.034328459564662],[8.3421963367276515,47.034107589114157],[8.3424373147802839,47.033887610008541],[8.3426818464791044,47.033668534324882],[8.3429299102841821,47.033450381459815],[8.3431814880659942,47.033233167357594],[8.343436561035702,47.033016908241301],[8.3436951104568919,47.032801620007938],[8.3439571159413948,47.03258731964587],[8.3442225571240982,47.032374023812849],[8.344491412928349,47.032161749445748],[8.344763701193969,47.031950483261753],[8.3450393612145213,47.031740273154917],[8.3453183702123059,47.031531136495644],[8.3456007046372633,47.031323090936894],[8.3458863410426716,47.03111615376757],[8.3461752540140246,47.030910343411449],[8.3464674182036269,47.030705677925887],[8.3467628074450513,47.030502175641594],[8.3470614008166581,47.03029985107041],[8.3473631651288649,47.030098726798506],[8.3476680723069414,47.02989882153819],[8.3479760934049878,47.0297001542679],[8.3482871996131998,47.029502743580814],[8.3486013598614157,47.029306609203573],[8.3489185431967012,47.029111770461171],[8.3492387177458163,47.028918246933316],[8.349562280400793,47.028725804925557],[8.3498887761431622,47.028534721210114],[8.3502181708709351,47.028345015746027],[8.3505504295159234,47.028156708730513],[8.3508855172030518,47.027969819940033],[8.3512233965208864,47.027784370251261],[8.3515640302297882,47.027600380104218],[8.3519073800913137,47.027417870153762],[8.3522534145675795,47.027236857256966],[8.3526020866061348,47.027057366119571],[8.3529533557339271,47.026879417577142],[8.353307180461611,47.026703032648214],[8.3536635195204081,47.026528231916316],[8.3540223289540734,47.026355036954513],[8.3543835650157732,47.026183468879701],[8.3547471829277775,47.026013548959533],[8.3551131990986551,47.025845270224131],[8.3554815060659067,47.025678682773638],[8.3558520567765342,47.025513807890903],[8.3562248031468762,47.0253506669712],[8.3565996973352981,47.025189280963176],[8.356976688793381,47.025029671636808],[8.3573557272161771,47.024871860290531],[8.3577367612900328,47.024715868289178],[8.3581197466082227,47.024561713890179],[8.3585046228617408,47.02440942144564],[8.3588913365885418,47.024259012110583],[8.3592798333521348,47.024110507058182],[8.3596700589660777,47.023963927009909],[8.3600619567064598,47.023819293281335],[8.3604554701027141,47.023676626714],[8.3608505417731092,47.0235359481118],[8.3612687662742093,47.023389779625873],[8.3616885902024798,47.023245868680533],[8.3621099440158204,47.023104239114566],[8.3625327571467398,47.022964914648369],[8.3629569592925534,47.02282791845672],[8.3633824775187247,47.022693274102522],[8.3638092391890151,47.022561004570257],[8.3642371707669714,47.022431132652038],[8.3646662047680476,47.022303678891738],[8.3650962598500591,47.022178667516926],[8.3655272607257558,47.022056120412991],[8.3659591313631267,47.02193605919863],[8.3663917959398049,47.021818504958574],[8.3668251767831308,47.021703478802344],[8.3672591964816654,47.021591001276391],[8.3676937770541286,47.021481092590193],[8.3681288721120701,47.021373764773713],[8.3685643710954771,47.021269045397219],[8.3690001950315231,47.021166953450503],[8.3694362645770202,47.021067507520058],[8.3698725004880004,47.020970725680264],[8.3703088227070204,47.020876625695045],[8.3707451513501177,47.020785224792775],[8.3711814063644603,47.020696539742843],[8.3716175085601687,47.020610586651912],[8.372053376885999,47.020527381503157],[8.3724889312088155,47.020446939593704],[8.3729240914392431,47.020369275715112],[8.3733587775084857,47.02029440415658],[8.3737929096460597,47.020222338657327],[8.3742264081511699,47.02015309244748],[8.3746591935839465,47.020086678216529],[8.3750910469291568,47.020023128251275],[8.3755220296941051,47.019962432175632],[8.3759520633496969,47.0199046010488],[8.3763810698324743,47.019849645368588],[8.3768089709972493,47.019797575141155],[8.3772356900786402,47.019748399703737],[8.3776611502804919,47.019702127906044],[8.378085275458611,47.019658768029018],[8.3785079849037345,47.01961832827412],[8.3789292086852676,47.01958081528165],[8.3793488723248668,47.019546235683976],[8.3797669021671854,47.019514595549829],[8.3801832244010495,47.019485900458484],[8.3805977674942351,47.019460155332894],[8.3810104597983894,47.019437364622291],[8.3814212306337659,47.019417532229454],[8.3818299527223026,47.019400663695805],[8.3822366148423129,47.019386758877978],[8.3826411486472647,47.019375820112366],[8.3830434868776145,47.01936784921714],[8.3834435620932073,47.01936284751816],[8.383841309742321,47.019360815812277],[8.3842366651058367,47.019361754429418],[8.3846295646443068,47.019365663218117],[8.3850199372299432,47.019372541373841],[8.3854077297267615,47.019382387862919],[8.3857928813144085,47.019395201140405],[8.3861753324189081,47.019410979223643],[8.3865550232871282,47.019429719635042],[8.3869318973646845,47.019451419570728],[8.3873058979118706,47.019476075762981],[8.3876769694740467,47.019503684555119],[8.3880409415636006,47.019533882457175],[8.388401945037101,47.019566958775414],[8.3887599290713126,47.019602908852491],[8.3891148440798062,47.019641727707977],[8.3894666403321096,47.019683409889247],[8.3898152711835952,47.019727949856076],[8.3901606898321681,47.01977534162841],[8.3905028507031059,47.019825578952528],[8.3908417009499114,47.019878653949561],[8.3911772051907185,47.019934560956685],[8.3915093206057918,47.019993292837782],[8.3918380055787747,47.020054842232511],[8.392163218396913,47.020119201315076],[8.3924849202628486,47.020186362392828],[8.3928030722500342,47.020256317338294],[8.393117636597621,47.020329057847732],[8.3934285173511185,47.020404560697941],[8.3937357389509923,47.020482830778136],[8.3940392662534773,47.02056385913388],[8.3943390652251715,47.020647636678888],[8.3946351017847469,47.020734153873818],[8.394927344460335,47.020823401505297],[8.395215761698946,47.020915369936453],[8.3955003229981351,47.021010049439965],[8.3957809922923641,47.021107427881006],[8.3960577471874167,47.021207497352961],[8.3963305595356701,47.021310247677221],[8.3965994021740666,47.021415668622303],[8.3968642479456079,47.021523749523055],[8.3971250719275847,47.021634480192319],[8.3973818491665853,47.021747850035382],[8.3976345556244372,47.021863848438166],[8.3978828359005036,47.021982303183954],[8.3981270105131571,47.022103357968049],[8.3983670575760758,47.022227001938845],[8.3986029560435824,47.022353224255106],[8.3988346849274365,47.022482013669929],[8.3990622250677447,47.022613359517663],[8.3992855573238732,47.022747250748516],[8.3995046633265797,47.02288367634884],[8.3997195212486204,47.02302262258209],[8.3999301181142183,47.023164080908202],[8.4001364373126819,47.023308040168722],[8.4003384629350588,47.023454489262129],[8.4005361791706257,47.023603416709598],[8.4007295716633887,47.023754811679744],[8.4009186261184556,47.023908662980979],[8.401103328877884,47.024064959497423],[8.4012836425873072,47.024223668373168],[8.4014595799664082,47.024384799527219],[8.4016311288378542,47.024548341805946],[8.4017982775972424,47.024714284145439],[8.4019610147692543,47.024882615134452],[8.4021193299964949,47.025053324040258],[8.4022732130176578,47.025226399797099],[8.4024226540861395,47.025401831441627],[8.4025676417299788,47.0255796053385],[8.4027081692940069,47.025759713154315],[8.4028442282502578,47.025942143958012],[8.4029758105302399,47.026126886929923],[8.4031029082169209,47.026313930933512],[8.4032255142218624,47.026503265515338],[8.4033436215789337,47.026694879916704],[8.4034572237301983,47.026888763496792],[8.4037015201429739,47.026624866780345],[8.4039510187161124,47.026365882849866],[8.4042056206745297,47.026111914235635],[8.4044652252227419,47.025863061482397],[8.4047297295847638,47.025619423109561],[8.4049990290448058,47.025381095572193],[8.4052730169887226,47.025148173222831],[8.4055515849462257,47.02492074827412],[8.4058346226338276,47.024698910762311],[8.406122017998495,47.024482748511645],[8.4064136572620161,47.024272347099533],[8.4067094249660475,47.024067789822723],[8.4070092040178146,47.023869157664279],[8.4073128757364728,47.023676529261564],[8.4076203199000954,47.023489980875077],[8.4079314147932642,47.02330958635828],[8.4082460372552585,47.023135417128351],[8.4085640627288125,47.022967542137913],[8.4088853653094269,47.022806027847714],[8.4092098177952135,47.022650938200378],[8.4095372917372568,47.022502334595011],[8.4098676574904623,47.022360275862944],[8.410200784264882,47.022224818244446],[8.4105365401774961,47.022096015366408],[8.410874792304428,47.021973918221185],[8.4112154067335556,47.021858575146339],[8.411558248617542,47.021750031805546],[8.4119031822272117,47.02164833117051],[8.4122500710052819,47.021553513503939],[8.4125987776204365,47.021465616343619],[8.4129491640216845,47.021384674487528],[8.4133010914930164,47.021310719980114],[8.4136544207083226,47.021243782099532],[8.4140090117865523,47.021183887346119],[8.4143647243470863,47.02113105943188],[8.4147214175653229,47.02108531927108],[8.415078950228418,47.021046684971992],[8.4154371807911978,47.021015171829724],[8.4157959674321958,47.020990792320141],[8.4161551681097944,47.020973556094972],[8.4165146406184643,47.020963469977922],[8.4168742426450542,47.02096053796204],[8.4172338318251452,47.020964761208099],[8.4175932657993986,47.020976138044126],[8.4179524022699237,47.0209946639661],[8.4183110990566057,47.021020331639718],[8.4186692141534056,47.02105313090329],[8.4190266057845626,47.021093048771768],[8.4193831324607409,47.021140069441891],[8.4197386530350293,47.021194174298451],[8.4200930267588312,47.021255341921623],[8.4204461133375759,47.021323548095502],[8.4207977729862744,47.021398765817644],[8.4211478664848425,47.02148096530977],[8.4214962552332313,47.021570114029565],[8.421842801306294,47.021666176683553],[8.4221873675083838,47.021769115241064],[8.4225298174276766,47.02187888894931],[8.4228700154901741,47.021995454349486],[8.4232078270133712,47.022118765294017],[8.4235431182595857,47.02224877296478],[8.4238757564888953,47.02238542589248],[8.4242056100116915,47.022528669976978],[8.4245325482408191,47.022678448508749],[8.4248564417432679,47.022834702191325],[8.4251771622914209,47.022997369164734],[8.4254945829138119,47.023166385030045],[8.4258085779453999,47.023341682874822],[8.4261190230773142,47.023523193299638],[8.4264257954060735,47.023710844445525],[8.4267287734822318,47.023904562022459],[8.4270278373584748,47.024104269338729],[8.4273228686370878,47.024309887331341],[8.4276137505168496,47.024521334597281],[8.4279003678392534,47.024738527425761],[8.428182607134115,47.02496137983136],[8.4284603566644787,47.02518980358807],[8.4287335064708664,47.025423708264199],[8.429001948414804,47.025663001258202],[8.4292655762216349,47.025907587835334],[8.4295242855225876,47.026157371165134],[8.4297779738961065,47.026412252359783],[8.4300265409083863,47.026672130513255],[8.430269888153143,47.026936902741248],[8.4305079192905712,47.027206464221919],[8.4307405400854769,47.027480708237391],[8.4309676584445956,47.027759526216002],[8.4311891844530464,47.028042807775279],[8.4314050304099233,47.028330440765643],[8.4316151108630244,47.028622311314805],[8.4318193426426813,47.028918303872864],[8.4320176448946746,47.029218301258013],[8.4322099391122602,47.029522184702991],[8.4323961491672357,47.029829833902035],[8.4325762013400869,47.030141127058556],[8.4327500243491684,47.030455940933344],[8.4329175493789279,47.03077415089335],[8.4330787101071465,47.031095630961048],[8.433233442731197,47.031420253864276],[8.4334294084740247,47.030935311386983],[8.4336319212851567,47.03045306628335],[8.4338409440482689,47.029973606938725],[8.4340564384539078,47.029497021227876],[8.434278365006497,47.029023396498893],[8.4345066830315911,47.028552819557184],[8.4347413506833195,47.028085376649571],[8.4349823249520544,47.02762115344845],[8.4352295616723065,47.027160235036142],[8.4354830155308083,47.02670270588925],[8.4357426400748174,47.026248649863192],[8.4360083877206424,47.025798150176861],[8.4362802097623533,47.025351289397321],[8.4365580563807114,47.024908149424725],[8.4368418766523003,47.024468811477256],[8.4371316185588601,47.024033356076295],[8.4374272289968211,47.023601863031601],[8.4377286537870333,47.023174411426744],[8.4380358376846996,47.022751079604575],[8.4383487243895008,47.022331945152871],[8.4386672565559131,47.02191708489012],[8.4389913758037221,47.02150657485145],[8.4393210227287128,47.021100490274677],[8.4396561369135679,47.020698905586528],[8.4399966569389377,47.020301894388993],[8.4403425203946938,47.019909529445833],[8.4406936638913717,47.01952188266926],[8.4410500230717851,47.019139025106732],[8.4414115326228245,47.018761026927962],[8.4417781262874261,47.018387957412024],[8.4421497368767149,47.018019884934681],[8.4425262962823204,47.017656876955847],[8.4429077354888573,47.017299000007206],[8.4432939845865764,47.016946319680059],[8.4436849727841761,47.016598900613246],[8.4440806284217835,47.016256806481351],[8.4444808789840735,47.015920099982992],[8.4448856511135748,47.015588842829374],[8.4452948706241067,47.015263095732919],[8.4457084625143768,47.014942918396194],[8.4461263509817304,47.014628369500947],[8.4465484594360358,47.014319506697341],[8.4469747105137323,47.014016386593404],[8.4474050260920013,47.013719064744649],[8.4478393273030861,47.01342759564389],[8.4482775345487493,47.013142032711251],[8.4487195675148605,47.012862428284393],[8.4491653451861151,47.012588833608902],[8.4496147858608808,47.012321298828894],[8.4500678071661763,47.012059872977844],[8.4505243260727685,47.011804603969594],[8.4509842589103812,47.011555538589555],[8.4514475213830451,47.01131272248616],[8.4519140285845324,47.011076200162456],[8.4523836950139284,47.010846014968003],[8.4528564345912969,47.010622209090876],[8.4533321606734635,47.010404823549969],[8.4538107860698819,47.01019389818746],[8.4542922230586282,47.009989471661505],[8.4547763834024749,47.009791581439174],[8.4552631783650583,47.009600263789565],[8.4557525187271416,47.009415553777153],[8.4562443148029764,47.009237485255397],[8.4567384764567315,47.009066090860486],[8.4572349131190112,47.008901402005392],[8.4577335338034629,47.0087434488741],[8.4582342471234497,47.008592260416094],[8.4587369613087979,47.008447864341008],[8.4592415842226139,47.008310287113609],[8.4597480233781788,47.008179553948885],[8.4602561859558953,47.008055688807474],[8.4607659788202927,47.007938714391223],[8.4612773085371131,47.007828652139089],[8.4617900813904185,47.007725522223154],[8.4623042033997748,47.007629343544941],[8.4628195803374826,47.007540133731986],[8.4633361177458326,47.007457909134551],[8.4638537209544307,47.00738268482268],[8.464372295097542,47.007314474583389],[8.4648917451314798,47.007253290918172],[8.4654119758520299,47.007199145040715],[8.4659328919118852,47.007152046874808],[8.4664543978381399,47.007112005052548],[8.4669763980497716,47.007079026912756],[8.4674987968751694,47.007053118499627],[8.468021498569664,47.007034284561627],[8.4685444073330753,47.007022528550621],[8.4690674273272748,47.007017852621232],[8.4695904626937448,47.007020257630472],[8.4701134175711523,47.007029743137537],[8.4706361961129133,47.00704630740394],[8.4711587025047663,47.007069947393809],[8.4716808409823265,47.007100658774426],[8.4722025158486396,47.007138435917035],[8.4727236314917249,47.007183271897901],[8.4732440924020924,47.007235158499526],[8.4737638031902502,47.007294086212198],[8.4742826686041894,47.007360044235703],[8.474800593546842,47.007433020481336],[8.4753174830935052,47.00751300157409],[8.4758332425092462,47.007599972855118],[8.4763477772662554,47.007693918384426],[8.4768609930611838,47.007794820943779],[8.4773727958324159,47.007902662039875],[8.4778830917773167,47.008017421907709],[8.4783917873694179,47.00813907951423],[8.4788987893755632,47.008267612562172],[8.4794040048729951,47.00840299749413],[8.4799073412663866,47.008545209496916],[8.4804087063048073,47.008694222506072],[8.4809080080986377,47.008850009210661],[8.4814051551364056,47.009012541058262],[8.4819000563015621,47.009181788260236],[8.4823926208891756,47.009357719797137]]},"properties":{"OBJECTID":83,"LINIENBEZ":"Luzern-Lido-Hertenstein SGV-Weggis-Vitznau","FP_URL":"http://www.lakelucerne.ch/fahrplan-preise/fahrplan/","TU":"SGV","TU_URL":"http://www.lakelucerne.ch/unternehmen/","TP_URL":"http://www.lakelucerne.ch/fahrplan-preise/preise-tickets/","SHAPE_Length":17821.779052485697}}]}