<?xml version="1.0" encoding="UTF-8"?>
<osm version="0.6" generator="openstreetmap-cgimap 2.1.0 (244689 spike-07.openstreetmap.org)" copyright="OpenStreetMap and contributors" attribution="http://www.openstreetmap.org/copyright" license="http://opendatacommons.org/licenses/odbl/1-0/">
 <node id="3978156585" visible="true" version="1" changeset="36900980" timestamp="2016-01-30T16:29:30Z" user="schlm3" uid="437645" lat="46.9049540" lon="7.2360984"/>
 <node id="3978156585" visible="true" version="2" changeset="72658718" timestamp="2019-07-25T18:47:32Z" user="romanh" uid="151069" lat="46.9048407" lon="7.2361896"/>
 <node id="3978156585" visible="true" version="3" changeset="100979483" timestamp="2021-03-14T08:09:43Z" user="sovereign_ch" uid="5755216" lat="46.9048428" lon="7.2361931"/>
 <node id="3978156585" visible="false" version="4" changeset="188660840" timestamp="2026-09-07T09:43:26Z" user="fredjunod" uid="84054"/>
</osm>
