<?xml version="1.0" encoding="UTF-8"?>
<osm version="0.6" generator="openstreetmap-cgimap 2.1.0 (244706 spike-07.openstreetmap.org)" copyright="OpenStreetMap and contributors" attribution="http://www.openstreetmap.org/copyright" license="http://opendatacommons.org/licenses/odbl/1-0/">
 <node id="279600247" visible="true" version="1" changeset="540546" timestamp="2008-07-19T20:04:19Z" user="kuede" uid="8296" lat="46.9029411" lon="7.2391286"/>
 <node id="279600247" visible="true" version="2" changeset="601754" timestamp="2008-10-27T20:59:44Z" user="guggis" uid="40577" lat="46.9029347" lon="7.2391001"/>
 <node id="279600247" visible="true" version="3" changeset="3164041" timestamp="2009-11-19T21:01:13Z" user="guggis" uid="40577" lat="46.9028862" lon="7.2391054"/>
 <node id="279600247" visible="true" version="4" changeset="24002222" timestamp="2014-07-07T11:38:02Z" user="efred" uid="125339" lat="46.9028856" lon="7.2390974"/>
 <node id="279600247" visible="true" version="5" changeset="135881318" timestamp="2023-05-09T07:31:44Z" user="habi" uid="15671" lat="46.9028893" lon="7.2390934"/>
 <node id="279600247" visible="false" version="6" changeset="188660840" timestamp="2026-09-07T09:43:26Z" user="fredjunod" uid="84054"/>
</osm>
