<?xml version="1.0" encoding="UTF-8"?>
<osm version="0.6" generator="openstreetmap-cgimap 2.1.0 (244709 spike-07.openstreetmap.org)" copyright="OpenStreetMap and contributors" attribution="http://www.openstreetmap.org/copyright" license="http://opendatacommons.org/licenses/odbl/1-0/">
 <node id="14049536298" visible="true" version="1" changeset="186358667" timestamp="2026-07-25T17:26:25Z" user="d_berger" uid="1234273" lat="46.9031411" lon="7.2390268">
  <tag k="crossing" v="uncontrolled"/>
  <tag k="crossing:markings" v="zebra"/>
  <tag k="highway" v="crossing"/>
 </node>
 <node id="14049536298" visible="true" version="2" changeset="188660840" timestamp="2026-09-07T09:43:26Z" user="fredjunod" uid="84054" lat="46.9031443" lon="7.2390256">
  <tag k="crossing" v="uncontrolled"/>
  <tag k="crossing:markings" v="zebra"/>
  <tag k="highway" v="crossing"/>
 </node>
</osm>
